IRIDIUM 116             
1 43072U 17083C   25275.83892210  .00000162  00000+0  50702-4 0  9995
2 43072  86.3915  69.5727 0002038  82.4441 277.6986 14.34216681407284
IRIDIUM 130             
1 43073U 17083D   25275.87697920  .00000061  00000+0  14743-4 0  9994
2 43073  86.3931  69.8073 0002203  82.3176 277.8270 14.34218246407230
IRIDIUM 151             
1 43074U 17083E   25275.92137771  .00000085  00000+0  23196-4 0  9992
2 43074  86.3927  69.5906 0001961  84.7530 275.3889 14.34218068407262
IRIDIUM 134             
1 43075U 17083F   25275.88966526  .00000170  00000+0  53781-4 0  9994
2 43075  86.3925  69.6082 0002291  84.4826 275.6632 14.34218218407221
IRIDIUM 137             
1 43076U 17083G   25275.83258057  .00000066  00000+0  16637-4 0  9996
2 43076  86.3927  69.7197 0001601  79.9384 280.1992 14.34218368407286
IRIDIUM 141             
1 43077U 17083H   25275.89600376  .00000270  00000+0  89454-4 0  9992
2 43077  86.3921  69.5385 0002096  94.4990 265.6446 14.34216172407296
IRIDIUM 153             
1 43078U 17083J   25275.70864874  .00000318  00000+0  10661-3 0  9994
2 43078  86.3995  38.0865 0002648 100.1307 260.0188 14.34218469408375
IRIDIUM 131             
1 43079U 17083K   25275.95308865  .00000017  00000+0 -87670-6 0  9999
2 43079  86.3929  69.6840 0001963  92.8761 267.2659 14.34220611407234
